{"type": "FeatureCollection", "features": [ {"type": "Feature", "properties": {"norad_id": 37418, "name": "FENGYUN 1C DEB", "group": "fengyun-1c-debris", "lat": 78.74199802997492, "lon": -167.39128198569625, "alt_km": 2229.2205526777952, "timestamp": "2025-12-17T15:50:10.069089+00:00", "meta": {"OBJECT_NAME": "FENGYUN 1C DEB", "OBJECT_ID": "1999-025EGL", "EPOCH": "2025-12-14T23:05:36.441312", "MEAN_MOTION": 11.9514329, "ECCENTRICITY": 0.10770942, "INCLINATION": 98.6128, "RA_OF_ASC_NODE": 240.39, "ARG_OF_PERICENTER": 315.5082, "MEAN_ANOMALY": 36.4187, "EPHEMERIS_TYPE": 0, "CLASSIFICATION_TYPE": "U", "NORAD_CAT_ID": 37418, "ELEMENT_SET_NO": 999, "REV_AT_EPOCH": 49511, "BSTAR": 0.0027835423, "MEAN_MOTION_DOT": 1.13e-05, "MEAN_MOTION_DDOT": 0}, "tle": {"line1": "1 37418U 99025EGL 25348.96222733  .00001130  00000+0  27835-2 0  9995", "line2": "2 37418  98.6128 240.3900 1077094 315.5082  36.4187 11.95143290495113"}}, "geometry": {"type": "Point", "coordinates": [-167.39128198569625, 78.74199802997492]}}, {"type": "Feature", "properties": {"norad_id": 37420, "name": "FENGYUN 1C DEB", "group": "fengyun-1c-debris", "lat": 30.61338527898183, "lon": 166.79180964517082, "alt_km": 913.3549123110861, "timestamp": "2025-12-17T15:50:10.069100+00:00", "meta": {"OBJECT_NAME": "FENGYUN 1C DEB", "OBJECT_ID": "1999-025EGN", "EPOCH": "2025-12-08T04:40:09.470784", "MEAN_MOTION": 13.9973792, "ECCENTRICITY": 0.00707955, "INCLINATION": 98.8619, "RA_OF_ASC_NODE": 332.3305, "ARG_OF_PERICENTER": 288.8881, "MEAN_ANOMALY": 70.4618, "EPHEMERIS_TYPE": 0, "CLASSIFICATION_TYPE": "U", "NORAD_CAT_ID": 37420, "ELEMENT_SET_NO": 999, "REV_AT_EPOCH": 59701, "BSTAR": 0.00086941135, "MEAN_MOTION_DOT": 1.257e-05, "MEAN_MOTION_DDOT": 0}, "tle": {"line1": "1 37420U 99025EGN 25342.19455406  .00001257  00000+0  86941-3 0  9996", "line2": "2 37420  98.8619 332.3305 0070795 288.8881  70.4618 13.99737920597017"}}, "geometry": {"type": "Point", "coordinates": [166.79180964517082, 30.61338527898183]}}, {"type": "Feature", "properties": {"norad_id": 37421, "name": "FENGYUN 1C DEB", "group": "fengyun-1c-debris", "lat": 14.28344027470759, "lon": 128.09724982715235, "alt_km": 1107.7720674805514, "timestamp": "2025-12-17T15:50:10.069110+00:00", "meta": {"OBJECT_NAME": "FENGYUN 1C DEB", "OBJECT_ID": "1999-025EGP", "EPOCH": "2025-12-17T07:53:38.656896", "MEAN_MOTION": 13.40536382, "ECCENTRICITY": 0.04092708, "INCLINATION": 98.888, "RA_OF_ASC_NODE": 305.5227, "ARG_OF_PERICENTER": 73.9716, "MEAN_ANOMALY": 290.6084, "EPHEMERIS_TYPE": 0, "CLASSIFICATION_TYPE": "U", "NORAD_CAT_ID": 37421, "ELEMENT_SET_NO": 999, "REV_AT_EPOCH": 61007, "BSTAR": 0.00075435568, "MEAN_MOTION_DOT": 6.43e-06, "MEAN_MOTION_DDOT": 0}, "tle": {"line1": "1 37421U 99025EGP 25351.32891964  .00000643  00000+0  75436-3 0  9990", "line2": "2 37421  98.8880 305.5227 0409270  73.9716 290.6084 13.40536382610077"}}, "geometry": {"type": "Point", "coordinates": [128.09724982715235, 14.28344027470759]}}, {"type": "Feature", "properties": {"norad_id": 37423, "name": "FENGYUN 1C DEB", "group": "fengyun-1c-debris", "lat": -45.12549512910329, "lon": 50.70402528988508, "alt_km": 909.3771119945186, "timestamp": "2025-12-17T15:50:10.069120+00:00", "meta": {"OBJECT_NAME": "FENGYUN 1C DEB", "OBJECT_ID": "1999-025EGR", "EPOCH": "2025-12-15T23:06:38.633760", "MEAN_MOTION": 14.07562451, "ECCENTRICITY": 0.00493691, "INCLINATION": 98.7866, "RA_OF_ASC_NODE": 40.1169, "ARG_OF_PERICENTER": 151.0563, "MEAN_ANOMALY": 209.3361, "EPHEMERIS_TYPE": 0, "CLASSIFICATION_TYPE": "U", "NORAD_CAT_ID": 37423, "ELEMENT_SET_NO": 999, "REV_AT_EPOCH": 63655, "BSTAR": 0.00052647626, "MEAN_MOTION_DOT": 8.55e-06, "MEAN_MOTION_DDOT": 0}, "tle": {"line1": "1 37423U 99025EGR 25349.96294715  .00000855  00000+0  52648-3 0  9995", "line2": "2 37423  98.7866  40.1169 0049369 151.0563 209.3361 14.07562451636552"}}, "geometry": {"type": "Point", "coordinates": [50.70402528988508, -45.12549512910329]}}, {"type": "Feature", "properties": {"norad_id": 37424, "name": "FENGYUN 1C DEB", "group": "fengyun-1c-debris", "lat": 10.89689210067431, "lon": 117.85543006017332, "alt_km": 866.6535756815892, "timestamp": "2025-12-17T15:50:10.069131+00:00", "meta": {"OBJECT_NAME": "FENGYUN 1C DEB", "OBJECT_ID": "1999-025EGS", "EPOCH": "2025-12-10T14:24:58.325184", "MEAN_MOTION": 14.17832081, "ECCENTRICITY": 0.0215746, "INCLINATION": 97.2028, "RA_OF_ASC_NODE": 113.5139, "ARG_OF_PERICENTER": 288.8478, "MEAN_ANOMALY": 68.9416, "EPHEMERIS_TYPE": 0, "CLASSIFICATION_TYPE": "U", "NORAD_CAT_ID": 37424, "ELEMENT_SET_NO": 999, "REV_AT_EPOCH": 68543, "BSTAR": 0.0014046, "MEAN_MOTION_DOT": 3.573e-05, "MEAN_MOTION_DDOT": 0}, "tle": {"line1": "1 37424U 99025EGS 25344.60067506  .00003573  00000+0  14046-2 0  9997", "line2": "2 37424  97.2028 113.5139 0215746 288.8478  68.9416 14.17832081685438"}}, "geometry": {"type": "Point", "coordinates": [117.85543006017332, 10.89689210067431]}}, {"type": "Feature", "properties": {"norad_id": 37427, "name": "FENGYUN 1C DEB", "group": "fengyun-1c-debris", "lat": 31.23669680383993, "lon": 128.7686780352877, "alt_km": 613.6459566459625, "timestamp": "2025-12-17T15:50:10.069141+00:00", "meta": {"OBJECT_NAME": "FENGYUN 1C DEB", "OBJECT_ID": "1999-025EGV", "EPOCH": "2025-12-15T15:36:19.704384", "MEAN_MOTION": 14.98096448, "ECCENTRICITY": 0.0187913, "INCLINATION": 98.6201, "RA_OF_ASC_NODE": 131.8285, "ARG_OF_PERICENTER": 288.244, "MEAN_ANOMALY": 69.8409, "EPHEMERIS_TYPE": 0, "CLASSIFICATION_TYPE": "U", "NORAD_CAT_ID": 37427, "ELEMENT_SET_NO": 999, "REV_AT_EPOCH": 60366, "BSTAR": 0.00028306034, "MEAN_MOTION_DOT": 4.742e-05, "MEAN_MOTION_DDOT": 0}, "tle": {"line1": "1 37427U 99025EGV 25349.65022806  .00004742  00000+0  28306-3 0  9998", "line2": "2 37427  98.6201 131.8285 0187913 288.2440  69.8409 14.98096448603666"}}, "geometry": {"type": "Point", "coordinates": [128.7686780352877, 31.23669680383993]}}, {"type": "Feature", "properties": {"norad_id": 37428, "name": "FENGYUN 1C DEB", "group": "fengyun-1c-debris", "lat": -5.036082316383193, "lon": 33.112017940566645, "alt_km": 787.1665861146621, "timestamp": "2025-12-17T15:50:10.069152+00:00", "meta": {"OBJECT_NAME": "FENGYUN 1C DEB", "OBJECT_ID": "1999-025EGW", "EPOCH": "2025-12-14T08:18:44.705664", "MEAN_MOTION": 14.34657068, "ECCENTRICITY": 0.0056813, "INCLINATION": 97.722, "RA_OF_ASC_NODE": 210.8336, "ARG_OF_PERICENTER": 94.0763, "MEAN_ANOMALY": 266.6921, "EPHEMERIS_TYPE": 0, "CLASSIFICATION_TYPE": "U", "NORAD_CAT_ID": 37428, "ELEMENT_SET_NO": 999, "REV_AT_EPOCH": 63459, "BSTAR": 0.0018586443, "MEAN_MOTION_DOT": 5.32e-05, "MEAN_MOTION_DDOT": 0}, "tle": {"line1": "1 37428U 99025EGW 25348.34635076  .00005320  00000+0  18586-2 0  9994", "line2": "2 37428  97.7220 210.8336 0056813  94.0763 266.6921 14.34657068634591"}}, "geometry": {"type": "Point", "coordinates": [33.112017940566645, -5.036082316383193]}}, {"type": "Feature", "properties": {"norad_id": 37430, "name": "FENGYUN 1C DEB", "group": "fengyun-1c-debris", "lat": 20.96754468500314, "lon": -110.81870215690046, "alt_km": 797.313161989563, "timestamp": "2025-12-17T15:50:10.069162+00:00", "meta": {"OBJECT_NAME": "FENGYUN 1C DEB", "OBJECT_ID": "1999-025EGY", "EPOCH": "2025-12-05T03:58:16.719456", "MEAN_MOTION": 14.28846273, "ECCENTRICITY": 0.001883, "INCLINATION": 98.7668, "RA_OF_ASC_NODE": 53.2332, "ARG_OF_PERICENTER": 93.5332, "MEAN_ANOMALY": 266.8003, "EPHEMERIS_TYPE": 0, "CLASSIFICATION_TYPE": "U", "NORAD_CAT_ID": 37430, "ELEMENT_SET_NO": 999, "REV_AT_EPOCH": 61593, "BSTAR": 0.0038447795, "MEAN_MOTION_DOT": 9.683e-05, "MEAN_MOTION_DDOT": 0}, "tle": {"line1": "1 37430U 99025EGY 25339.16547129  .00009683  00000+0  38448-2 0  9993", "line2": "2 37430  98.7668  53.2332 0018830  93.5332 266.8003 14.28846273615930"}}, "geometry": {"type": "Point", "coordinates": [-110.81870215690046, 20.96754468500314]}}, {"type": "Feature", "properties": {"norad_id": 37432, "name": "FENGYUN 1C DEB", "group": "fengyun-1c-debris", "lat": -53.78551160251192, "lon": 16.155697341138467, "alt_km": 612.1852531704972, "timestamp": "2025-12-17T15:50:10.069173+00:00", "meta": {"OBJECT_NAME": "FENGYUN 1C DEB", "OBJECT_ID": "1999-025EHA", "EPOCH": "2025-12-14T18:41:25.668384", "MEAN_MOTION": 14.5345933, "ECCENTRICITY": 0.01818124, "INCLINATION": 98.1845, "RA_OF_ASC_NODE": 2.0052, "ARG_OF_PERICENTER": 281.6104, "MEAN_ANOMALY": 76.4736, "EPHEMERIS_TYPE": 0, "CLASSIFICATION_TYPE": "U", "NORAD_CAT_ID": 37432, "ELEMENT_SET_NO": 999, "REV_AT_EPOCH": 8406, "BSTAR": 0.00074213172, "MEAN_MOTION_DOT": 3.795e-05, "MEAN_MOTION_DDOT": 0}, "tle": {"line1": "1 37432U 99025EHA 25348.77876931  .00003795  00000+0  74213-3 0  9997", "line2": "2 37432  98.1845   2.0052 0181812 281.6104  76.4736 14.53459330 84066"}}, "geometry": {"type": "Point", "coordinates": [16.155697341138467, -53.78551160251192]}}, {"type": "Feature", "properties": {"norad_id": 37435, "name": "FENGYUN 1C DEB", "group": "fengyun-1c-debris", "lat": 29.027893917496037, "lon": 23.03176065027863, "alt_km": 790.5444303204176, "timestamp": "2025-12-17T15:50:10.069184+00:00", "meta": {"OBJECT_NAME": "FENGYUN 1C DEB", "OBJECT_ID": "1999-025EHD", "EPOCH": "2025-12-13T08:42:56.940192", "MEAN_MOTION": 14.22368341, "ECCENTRICITY": 0.00403043, "INCLINATION": 98.6487, "RA_OF_ASC_NODE": 23.6617, "ARG_OF_PERICENTER": 12.4728, "MEAN_ANOMALY": 347.7438, "EPHEMERIS_TYPE": 0, "CLASSIFICATION_TYPE": "U", "NORAD_CAT_ID": 37435, "ELEMENT_SET_NO": 999, "REV_AT_EPOCH": 88948, "BSTAR": 0.0015840008, "MEAN_MOTION_DOT": 3.512e-05, "MEAN_MOTION_DDOT": 0}, "tle": {"line1": "1 37435U 99025EHD 25347.36315903  .00003512  00000+0  15840-2 0  9998", "line2": "2 37435  98.6487  23.6617 0040304  12.4728 347.7438 14.22368341889483"}}, "geometry": {"type": "Point", "coordinates": [23.03176065027863, 29.027893917496037]}}]}